{
"type": "FeatureCollection",
"name": "gta_bicycle_shops1",
"crs": { "type": "name", "properties": { "name": "urn:ogc:def:crs:OGC:1.3:CRS84" } },
"features": [
{ "type": "Feature", "properties": { "id": "way/61955961", "@id": "way/61955961", "city": "Markham", "address_number": "111", "postal_code": "L3T 1L6", "address_street": "Doncaster Avenue", "name": "Silent Sports", "opening_hours": "Mo-Fr 10:00-18:00; Sa 10:00-16:00; Su off; PH off", "phone": "+1-800-661-7873", "website": "https://silentsports.com/", "facebook": "Not Available", "unit": "Not Available", "email": "Not Available" }, "geometry": { "type": "Point", "coordinates": [ -79.412334367337806, 43.804657087790901 ] } },
{ "type": "Feature", "properties": { "id": "way/340433806", "@id": "way/340433806", "city": "Campbellville", "address_number": "6", "postal_code": "Not Available", "address_street": "Main Street North", "name": "Flying Monkey Bike Shop & Coffee Bar", "opening_hours": "Not Available", "phone": "+1-289-458-0202", "website": "flyingmonkeybikeshop.com", "facebook": "www.facebook.com/FlyingMonkeyBikeShopCoffeeBar", "unit": "Not Available", "email": "Not Available" }, "geometry": { "type": "Point", "coordinates": [ -79.982399820672242, 43.487171565458212 ] } },
{ "type": "Feature", "properties": { "id": "node/382988957", "@id": "node/382988957", "city": "Not Available", "address_number": "37", "postal_code": "Not Available", "address_street": "Main Street Markham North", "name": "The Cyclepath", "opening_hours": "Not Available", "phone": "Not Available", "website": "Not Available", "facebook": "Not Available", "unit": "Not Available", "email": "Not Available" }, "geometry": { "type": "Point", "coordinates": [ -79.2598952, 43.8750089 ] } },
{ "type": "Feature", "properties": { "id": "node/599897437", "@id": "node/599897437", "city": "Not Available", "address_number": "Not Available", "postal_code": "Not Available", "address_street": "Not Available", "name": "Pedal Performance", "opening_hours": "Not Available", "phone": "Not Available", "website": "Not Available", "facebook": "Not Available", "unit": "Not Available", "email": "Not Available" }, "geometry": { "type": "Point", "coordinates": [ -79.5520728, 43.8122984 ] } },
{ "type": "Feature", "properties": { "id": "node/900304260", "@id": "node/900304260", "city": "Mississauga", "address_number": "176", "postal_code": "Not Available", "address_street": "Lakeshore Road West", "name": "Gears", "opening_hours": "Mo-Fr 10:00-20:00; Sa 10:00-18:00; Su 11:00-17:00", "phone": "+1-905-271-2400", "website": "http://gearsbikeshop.com", "facebook": "Not Available", "unit": "Not Available", "email": "Not Available" }, "geometry": { "type": "Point", "coordinates": [ -79.5898698, 43.548001 ] } },
{ "type": "Feature", "properties": { "id": "node/1616739843", "@id": "node/1616739843", "city": "Not Available", "address_number": "Not Available", "postal_code": "Not Available", "address_street": "Not Available", "name": "Ollie's Cycle & Ski", "opening_hours": "Not Available", "phone": "Not Available", "website": "Not Available", "facebook": "Not Available", "unit": "Not Available", "email": "Not Available" }, "geometry": { "type": "Point", "coordinates": [ -79.9273127, 43.6502055 ] } },
{ "type": "Feature", "properties": { "id": "node/1852344003", "@id": "node/1852344003", "city": "Mississauga", "address_number": "734", "postal_code": "Not Available", "address_street": "Dundas Street East", "name": "Bike Zone", "opening_hours": "Not Available", "phone": "+1-905-278-5573", "website": "www.thebikezone.com", "facebook": "Not Available", "unit": "Not Available", "email": "Not Available" }, "geometry": { "type": "Point", "coordinates": [ -79.5986578, 43.5953857 ] } },
{ "type": "Feature", "properties": { "id": "node/1852404399", "@id": "node/1852404399", "city": "Not Available", "address_number": "892", "postal_code": "L7R 2J5", "address_street": "Brant Street", "name": "Brant Cycle", "opening_hours": "Not Available", "phone": "Not Available", "website": "https://www.brantcycle.ca/", "facebook": "Not Available", "unit": "Not Available", "email": "Not Available" }, "geometry": { "type": "Point", "coordinates": [ -79.8133128, 43.3358595 ] } },
{ "type": "Feature", "properties": { "id": "node/2150495610", "@id": "node/2150495610", "city": "Inglewood", "address_number": "15640", "postal_code": "L7C 1M3", "address_street": "McLaughlin Road", "name": "Caledon Hills Cycling and Nordic Cenre", "opening_hours": "Not Available", "phone": "+1-905-838-1698", "website": "www.caledonhillscycling.com", "facebook": "Not Available", "unit": "Not Available", "email": "Not Available" }, "geometry": { "type": "Point", "coordinates": [ -79.9327775, 43.7957851 ] } },
{ "type": "Feature", "properties": { "id": "node/2196585518", "@id": "node/2196585518", "city": "Milton", "address_number": "307", "postal_code": "Not Available", "address_street": "Steeles Avenue East", "name": "Spokes 'N' Slopes", "opening_hours": "Not Available", "phone": "+1-905-876-7676", "website": "http://www.spokesnslopes.com/", "facebook": "Not Available", "unit": "Not Available", "email": "Not Available" }, "geometry": { "type": "Point", "coordinates": [ -79.8920698, 43.5239663 ] } },
{ "type": "Feature", "properties": { "id": "node/2497612969", "@id": "node/2497612969", "city": "Mississauga", "address_number": "1708", "postal_code": "Not Available", "address_street": "Lakeshore Road West", "name": "Van de Velo", "opening_hours": "Not Available", "phone": "+1-905-855-1190", "website": "Not Available", "facebook": "Not Available", "unit": "Not Available", "email": "Not Available" }, "geometry": { "type": "Point", "coordinates": [ -79.6217115, 43.5179392 ] } },
{ "type": "Feature", "properties": { "id": "node/2498066689", "@id": "node/2498066689", "city": "Not Available", "address_number": "Not Available", "postal_code": "Not Available", "address_street": "Not Available", "name": "Van de Velo", "opening_hours": "Not Available", "phone": "Not Available", "website": "Not Available", "facebook": "Not Available", "unit": "Not Available", "email": "Not Available" }, "geometry": { "type": "Point", "coordinates": [ -79.6611074, 43.5001211 ] } },
{ "type": "Feature", "properties": { "id": "node/2700219240", "@id": "node/2700219240", "city": "Oakville", "address_number": "507", "postal_code": "Not Available", "address_street": "Speers Road", "name": "Cyclepath Oakville", "opening_hours": "Not Available", "phone": "Not Available", "website": "https://www.cyclepath.ca/", "facebook": "Not Available", "unit": "Not Available", "email": "Not Available" }, "geometry": { "type": "Point", "coordinates": [ -79.6989334, 43.4371821 ] } },
{ "type": "Feature", "properties": { "id": "node/3430046183", "@id": "node/3430046183", "city": "Oakville", "address_number": "151", "postal_code": "Not Available", "address_street": "Robinson Street", "name": "Racer Sportif", "opening_hours": "Not Available", "phone": "Not Available", "website": "https://www.racersportif.com/", "facebook": "Not Available", "unit": "Not Available", "email": "Not Available" }, "geometry": { "type": "Point", "coordinates": [ -79.6688617, 43.4441235 ] } },
{ "type": "Feature", "properties": { "id": "node/3445107576", "@id": "node/3445107576", "city": "Not Available", "address_number": "Not Available", "postal_code": "Not Available", "address_street": "Not Available", "name": "Mill Town Cycle", "opening_hours": "Not Available", "phone": "+1-905-864-8800", "website": "https://www.milltowncycle.ca/", "facebook": "Not Available", "unit": "Not Available", "email": "Not Available" }, "geometry": { "type": "Point", "coordinates": [ -79.87114, 43.5202721 ] } },
{ "type": "Feature", "properties": { "id": "node/3458612120", "@id": "node/3458612120", "city": "Not Available", "address_number": "Not Available", "postal_code": "Not Available", "address_street": "Not Available", "name": "BikeSports", "opening_hours": "Not Available", "phone": "Not Available", "website": "Not Available", "facebook": "Not Available", "unit": "Not Available", "email": "Not Available" }, "geometry": { "type": "Point", "coordinates": [ -79.465643, 43.9881178 ] } },
{ "type": "Feature", "properties": { "id": "node/3464389565", "@id": "node/3464389565", "city": "Markham", "address_number": "227", "postal_code": "L3P 1Y6", "address_street": "Main Street Markham North", "name": "Station Ski & Ride", "opening_hours": "Not Available", "phone": "Not Available", "website": "Not Available", "facebook": "Not Available", "unit": "Not Available", "email": "Not Available" }, "geometry": { "type": "Point", "coordinates": [ -79.2612768, 43.8838293 ] } },
{ "type": "Feature", "properties": { "id": "node/3468562461", "@id": "node/3468562461", "city": "Newmarket", "address_number": "47", "postal_code": "L3Y 3Y3", "address_street": "Main Street South", "name": "Bike Sports", "opening_hours": "Mo-Fr 11:00-19:00; Sa 10:00-17:00; Su 11:00-16:00; \"varies by season\"", "phone": "+1-905-953-1609", "website": "https://www.bikesports.ca/", "facebook": "Not Available", "unit": "Not Available", "email": "Not Available" }, "geometry": { "type": "Point", "coordinates": [ -79.4602799, 44.0576302 ] } },
{ "type": "Feature", "properties": { "id": "node/3753185365", "@id": "node/3753185365", "city": "Not Available", "address_number": "Not Available", "postal_code": "Not Available", "address_street": "Not Available", "name": "The Cyclepath", "opening_hours": "Not Available", "phone": "+1-905-848-4481", "website": "http://cyclepathmississauga.com/", "facebook": "Not Available", "unit": "Not Available", "email": "Not Available" }, "geometry": { "type": "Point", "coordinates": [ -79.6632926, 43.5685499 ] } },
{ "type": "Feature", "properties": { "id": "node/3762117276", "@id": "node/3762117276", "city": "Not Available", "address_number": "Not Available", "postal_code": "Not Available", "address_street": "Not Available", "name": "Pedalinx", "opening_hours": "Not Available", "phone": "+1-905-997-4700", "website": "https://pedalinx.com/", "facebook": "Not Available", "unit": "Not Available", "email": "Not Available" }, "geometry": { "type": "Point", "coordinates": [ -79.7789648, 43.5832693 ] } },
{ "type": "Feature", "properties": { "id": "node/3783954732", "@id": "node/3783954732", "city": "Not Available", "address_number": "Not Available", "postal_code": "Not Available", "address_street": "Not Available", "name": "bikedepot", "opening_hours": "Not Available", "phone": "Not Available", "website": "Not Available", "facebook": "Not Available", "unit": "Not Available", "email": "Not Available" }, "geometry": { "type": "Point", "coordinates": [ -79.4200773, 43.7992256 ] } },
{ "type": "Feature", "properties": { "id": "node/4029719694", "@id": "node/4029719694", "city": "Not Available", "address_number": "Not Available", "postal_code": "Not Available", "address_street": "Not Available", "name": "Cyclepath", "opening_hours": "Not Available", "phone": "Not Available", "website": "Not Available", "facebook": "Not Available", "unit": "Not Available", "email": "Not Available" }, "geometry": { "type": "Point", "coordinates": [ -79.5528079, 43.7879097 ] } },
{ "type": "Feature", "properties": { "id": "node/4238295073", "@id": "node/4238295073", "city": "Not Available", "address_number": "Not Available", "postal_code": "Not Available", "address_street": "Not Available", "name": "Impala Bicycles", "opening_hours": "Not Available", "phone": "Not Available", "website": "Not Available", "facebook": "Not Available", "unit": "Not Available", "email": "Not Available" }, "geometry": { "type": "Point", "coordinates": [ -78.9035181, 43.8889505 ] } },
{ "type": "Feature", "properties": { "id": "node/4555485349", "@id": "node/4555485349", "city": "Mississauga", "address_number": "2273", "postal_code": "L5K 2L8", "address_street": "Dundas Street West", "name": "Trek", "opening_hours": "Not Available", "phone": "+1-905-997-8735", "website": "Not Available", "facebook": "Not Available", "unit": "13", "email": "trekbikes@rogers.com" }, "geometry": { "type": "Point", "coordinates": [ -79.6721965, 43.5321952 ] } },
{ "type": "Feature", "properties": { "id": "node/4687912954", "@id": "node/4687912954", "city": "Markham", "address_number": "7381", "postal_code": "L3R 5B5", "address_street": "Kennedy Road", "name": "Summit Cycle", "opening_hours": "Not Available", "phone": "Not Available", "website": "Not Available", "facebook": "Not Available", "unit": "Not Available", "email": "Not Available" }, "geometry": { "type": "Point", "coordinates": [ -79.3036376, 43.8348261 ] } },
{ "type": "Feature", "properties": { "id": "node/4946428842", "@id": "node/4946428842", "city": "Town of Whitchurch-Stouffville (Stouffville)", "address_number": "6380", "postal_code": "L4A 1G3", "address_street": "Main Street", "name": "The Bike Asylum", "opening_hours": "Not Available", "phone": "+1-905-591-7700", "website": "http://www.thebikeasylum.com", "facebook": "Not Available", "unit": "7 & 8", "email": "Not Available" }, "geometry": { "type": "Point", "coordinates": [ -79.2433919, 43.9723637 ] } },
{ "type": "Feature", "properties": { "id": "node/6536207583", "@id": "node/6536207583", "city": "Not Available", "address_number": "Not Available", "postal_code": "Not Available", "address_street": "Not Available", "name": "Giant", "opening_hours": "Not Available", "phone": "Not Available", "website": "Not Available", "facebook": "Not Available", "unit": "Not Available", "email": "Not Available" }, "geometry": { "type": "Point", "coordinates": [ -79.4996701, 43.7982652 ] } },
{ "type": "Feature", "properties": { "id": "node/6589736898", "@id": "node/6589736898", "city": "Not Available", "address_number": "Not Available", "postal_code": "Not Available", "address_street": "Not Available", "name": "The Velo Love Bike Shop", "opening_hours": "Not Available", "phone": "Not Available", "website": "Not Available", "facebook": "Not Available", "unit": "Not Available", "email": "Not Available" }, "geometry": { "type": "Point", "coordinates": [ -79.4213845, 43.8950671 ] } },
{ "type": "Feature", "properties": { "id": "node/7147403292", "@id": "node/7147403292", "city": "Not Available", "address_number": "Not Available", "postal_code": "Not Available", "address_street": "Not Available", "name": "Bike Shop", "opening_hours": "Not Available", "phone": "Not Available", "website": "Not Available", "facebook": "Not Available", "unit": "Not Available", "email": "Not Available" }, "geometry": { "type": "Point", "coordinates": [ -79.6088831, 43.824012 ] } },
{ "type": "Feature", "properties": { "id": "node/7530630486", "@id": "node/7530630486", "city": "Not Available", "address_number": "Not Available", "postal_code": "Not Available", "address_street": "Not Available", "name": "Bicycle Planet", "opening_hours": "Not Available", "phone": "Not Available", "website": "Not Available", "facebook": "Not Available", "unit": "Not Available", "email": "Not Available" }, "geometry": { "type": "Point", "coordinates": [ -79.4671752, 43.997105 ] } },
{ "type": "Feature", "properties": { "id": "node/7567803032", "@id": "node/7567803032", "city": "Whitby", "address_number": "1618", "postal_code": "L1N 8Y8", "address_street": "Dundas Street East", "name": "Bicycles Plus", "opening_hours": "Not Available", "phone": "Not Available", "website": "Not Available", "facebook": "Not Available", "unit": "1", "email": "Not Available" }, "geometry": { "type": "Point", "coordinates": [ -78.9114052, 43.8876275 ] } },
{ "type": "Feature", "properties": { "id": "node/7567835983", "@id": "node/7567835983", "city": "Ajax", "address_number": "889", "postal_code": "L1S 3M4", "address_street": "Westney Road South", "name": "Northern Cycle", "opening_hours": "Not Available", "phone": "Not Available", "website": "Not Available", "facebook": "Not Available", "unit": "Not Available", "email": "Not Available" }, "geometry": { "type": "Point", "coordinates": [ -79.0192543, 43.8307082 ] } },
{ "type": "Feature", "properties": { "id": "node/7567835984", "@id": "node/7567835984", "city": "Pickering", "address_number": "980", "postal_code": "L1W 2A3", "address_street": "Brock Road", "name": "Bike Depot", "opening_hours": "Not Available", "phone": "Not Available", "website": "Not Available", "facebook": "Not Available", "unit": "Not Available", "email": "Not Available" }, "geometry": { "type": "Point", "coordinates": [ -79.0676246, 43.8317719 ] } },
{ "type": "Feature", "properties": { "id": "node/7567841086", "@id": "node/7567841086", "city": "Pickering", "address_number": "1050", "postal_code": "L1W 3X4", "address_street": "Brock Road", "name": "Cycle Life", "opening_hours": "Mo-Fr 11:00-17:00; Sa 10:00-16:00", "phone": "+1 905-837-2906", "website": "Not Available", "facebook": "Not Available", "unit": "1", "email": "Not Available" }, "geometry": { "type": "Point", "coordinates": [ -79.0693949, 43.8355609 ] } },
{ "type": "Feature", "properties": { "id": "node/7732677460", "@id": "node/7732677460", "city": "Port Perry", "address_number": "175", "postal_code": "L9L 1B8", "address_street": "Queen Street", "name": "Cycle Life", "opening_hours": "Tu-Sa 11:00-17:00; Su 12:00-16:00", "phone": "+1 905-985-6767", "website": "Not Available", "facebook": "Not Available", "unit": "Not Available", "email": "Not Available" }, "geometry": { "type": "Point", "coordinates": [ -78.9433136, 44.1052619 ] } },
{ "type": "Feature", "properties": { "id": "node/7770159412", "@id": "node/7770159412", "city": "Not Available", "address_number": "Not Available", "postal_code": "Not Available", "address_street": "Not Available", "name": "Neworld Cycle", "opening_hours": "Not Available", "phone": "Not Available", "website": "Not Available", "facebook": "Not Available", "unit": "Not Available", "email": "Not Available" }, "geometry": { "type": "Point", "coordinates": [ -79.8339561, 43.3204285 ] } },
{ "type": "Feature", "properties": { "id": "node/7770697097", "@id": "node/7770697097", "city": "Not Available", "address_number": "Not Available", "postal_code": "Not Available", "address_street": "Not Available", "name": "Rolling Horse", "opening_hours": "Not Available", "phone": "Not Available", "website": "Not Available", "facebook": "Not Available", "unit": "Not Available", "email": "Not Available" }, "geometry": { "type": "Point", "coordinates": [ -79.830464, 43.3224747 ] } },
{ "type": "Feature", "properties": { "id": "node/7771167895", "@id": "node/7771167895", "city": "Not Available", "address_number": "Not Available", "postal_code": "Not Available", "address_street": "Not Available", "name": "Rock & Road Cycle", "opening_hours": "Not Available", "phone": "Not Available", "website": "Not Available", "facebook": "Not Available", "unit": "Not Available", "email": "Not Available" }, "geometry": { "type": "Point", "coordinates": [ -79.8360895, 43.3758817 ] } },
{ "type": "Feature", "properties": { "id": "node/8493913358", "@id": "node/8493913358", "city": "Not Available", "address_number": "50", "postal_code": "Not Available", "address_street": "Van Kirk Drive", "name": "Highlands Bike Inc", "opening_hours": "Not Available", "phone": "+1 6472102336", "website": "Http://Facebook.com/highlandsbikes", "facebook": "Not Available", "unit": "Not Available", "email": "Not Available" }, "geometry": { "type": "Point", "coordinates": [ -79.8004819, 43.7022239 ] } },
{ "type": "Feature", "properties": { "id": "node/8914945537", "@id": "node/8914945537", "city": "Not Available", "address_number": "Not Available", "postal_code": "Not Available", "address_street": "Not Available", "name": "416 Wheels & Tires", "opening_hours": "Not Available", "phone": "Not Available", "website": "Not Available", "facebook": "Not Available", "unit": "Not Available", "email": "Not Available" }, "geometry": { "type": "Point", "coordinates": [ -79.5761352, 43.6033693 ] } },
{ "type": "Feature", "properties": { "id": "node/9918271242", "@id": "node/9918271242", "city": "Not Available", "address_number": "Not Available", "postal_code": "Not Available", "address_street": "Not Available", "name": "Evolution Cycles", "opening_hours": "Not Available", "phone": "Not Available", "website": "Not Available", "facebook": "Not Available", "unit": "Not Available", "email": "Not Available" }, "geometry": { "type": "Point", "coordinates": [ -79.4377458, 43.8747014 ] } },
{ "type": "Feature", "properties": { "id": "node/9963164811", "@id": "node/9963164811", "city": "Whitby", "address_number": "1121", "postal_code": "L1N2K4", "address_street": "Dundas Street East", "name": "Whitby Bikes", "opening_hours": "Not Available", "phone": "Not Available", "website": "Not Available", "facebook": "Not Available", "unit": "Not Available", "email": "Not Available" }, "geometry": { "type": "Point", "coordinates": [ -78.923457, 43.8833542 ] } },
{ "type": "Feature", "properties": { "id": "node/10634189903", "@id": "node/10634189903", "city": "Not Available", "address_number": "Not Available", "postal_code": "Not Available", "address_street": "Not Available", "name": "Not Available", "opening_hours": "Not Available", "phone": "Not Available", "website": "Not Available", "facebook": "Not Available", "unit": "Not Available", "email": "Not Available" }, "geometry": { "type": "Point", "coordinates": [ -79.026347, 43.8774489 ] } }
]
}
